{
  "type": "FeatureCollection",
  "features": [
    {
      "type": "Feature",
      "properties": {
        "norad_id": 39773,
        "name": "EUTELSAT 3B",
        "group": "eutelsat",
        "lat": -0.06545597864260858,
        "lon": -135.6075976428812,
        "alt_km": 35768.08385659258,
        "timestamp": "2025-12-17T09:00:16.816334+00:00",
        "meta_object_name": "EUTELSAT 3B",
        "meta_object_id": "2014-030A",
        "meta_epoch": "2025-12-16T18:30:31.468320",
        "meta_mean_motion": 1.00271819,
        "meta_eccentricity": 0.00042855,
        "meta_inclination": 0.0604,
        "meta_ra_of_asc_node": 358.1537,
        "meta_arg_of_pericenter": 233.4794,
        "meta_mean_anomaly": 134.7434,
        "meta_ephemeris_type": 0,
        "meta_classification_type": "U",
        "meta_norad_cat_id": 39773,
        "meta_element_set_no": 999,
        "meta_rev_at_epoch": 4223,
        "meta_bstar": 0,
        "meta_mean_motion_dot": 4.4e-07,
        "meta_mean_motion_ddot": 0,
        "tle_line1": "1 39773U 14030A   25350.77119755  .00000044  00000+0  00000+0 0  9990",
        "tle_line2": "2 39773   0.0604 358.1537 0004285 233.4794 134.7434  1.00271819 42230"
      },
      "geometry": {
        "type": "Point",
        "coordinates": [
          -135.6075976428812,
          -0.06545597864260858
        ]
      }
    },
    {
      "type": "Feature",
      "properties": {
        "norad_id": 40425,
        "name": "EUTELSAT 115 WEST B",
        "group": "eutelsat",
        "lat": -0.010016493061148773,
        "lon": 106.40416429480479,
        "alt_km": 35786.873993250054,
        "timestamp": "2025-12-17T09:00:16.816346+00:00",
        "meta_object_name": "EUTELSAT 115 WEST B",
        "meta_object_id": "2015-010B",
        "meta_epoch": "2025-12-16T10:53:20.776416",
        "meta_mean_motion": 1.00270606,
        "meta_eccentricity": 1.284e-05,
        "meta_inclination": 0.012,
        "meta_ra_of_asc_node": 152.6665,
        "meta_arg_of_pericenter": 108.4071,
        "meta_mean_anomaly": 232.705,
        "meta_ephemeris_type": 0,
        "meta_classification_type": "U",
        "meta_norad_cat_id": 40425,
        "meta_element_set_no": 999,
        "meta_rev_at_epoch": 3956,
        "meta_bstar": 0,
        "meta_mean_motion_dot": -1e-08,
        "meta_mean_motion_ddot": 0,
        "tle_line1": "1 40425U 15010B   25350.45371269 -.00000001  00000+0  00000+0 0  9994",
        "tle_line2": "2 40425   0.0120 152.6665 0000128 108.4071 232.7050  1.00270606 39567"
      },
      "geometry": {
        "type": "Point",
        "coordinates": [
          106.40416429480479,
          -0.010016493061148773
        ]
      }
    },
    {
      "type": "Feature",
      "properties": {
        "norad_id": 40875,
        "name": "EUTELSAT 8 WEST B",
        "group": "eutelsat",
        "lat": -0.06450212582563442,
        "lon": -146.7157031843563,
        "alt_km": 35775.19825954429,
        "timestamp": "2025-12-17T09:00:16.816358+00:00",
        "meta_object_name": "EUTELSAT 8 WEST B",
        "meta_object_id": "2015-039B",
        "meta_epoch": "2025-12-16T16:44:34.113120",
        "meta_mean_motion": 1.00271868,
        "meta_eccentricity": 0.00043212,
        "meta_inclination": 0.0643,
        "meta_ra_of_asc_node": 349.1191,
        "meta_arg_of_pericenter": 277.8464,
        "meta_mean_anomaly": 61.775,
        "meta_ephemeris_type": 0,
        "meta_classification_type": "U",
        "meta_norad_cat_id": 40875,
        "meta_element_set_no": 999,
        "meta_rev_at_epoch": 3782,
        "meta_bstar": 0,
        "meta_mean_motion_dot": -4.1e-07,
        "meta_mean_motion_ddot": 0,
        "tle_line1": "1 40875U 15039B   25350.69761705 -.00000041  00000+0  00000+0 0  9992",
        "tle_line2": "2 40875   0.0643 349.1191 0004321 277.8464  61.7750  1.00271868 37824"
      },
      "geometry": {
        "type": "Point",
        "coordinates": [
          -146.7157031843563,
          -0.06450212582563442
        ]
      }
    },
    {
      "type": "Feature",
      "properties": {
        "norad_id": 41310,
        "name": "EUTELSAT 9B",
        "group": "eutelsat",
        "lat": -0.005289830915861609,
        "lon": -129.73589416468863,
        "alt_km": 35772.11123836914,
        "timestamp": "2025-12-17T09:00:16.816370+00:00",
        "meta_object_name": "EUTELSAT 9B",
        "meta_object_id": "2016-005A",
        "meta_epoch": "2025-12-16T18:32:08.812608",
        "meta_mean_motion": 1.00271598,
        "meta_eccentricity": 0.00044998,
        "meta_inclination": 0.0545,
        "meta_ra_of_asc_node": 69.0864,
        "meta_arg_of_pericenter": 204.1365,
        "meta_mean_anomaly": 99.4609,
        "meta_ephemeris_type": 0,
        "meta_classification_type": "U",
        "meta_norad_cat_id": 41310,
        "meta_element_set_no": 999,
        "meta_rev_at_epoch": 3628,
        "meta_bstar": 0,
        "meta_mean_motion_dot": 8.6e-07,
        "meta_mean_motion_ddot": 0,
        "tle_line1": "1 41310U 16005A   25350.77232422  .00000086  00000+0  00000+0 0  9997",
        "tle_line2": "2 41310   0.0545  69.0864 0004499 204.1365  99.4609  1.00271598 36284"
      },
      "geometry": {
        "type": "Point",
        "coordinates": [
          -129.73589416468863,
          -0.005289830915861609
        ]
      }
    },
    {
      "type": "Feature",
      "properties": {
        "norad_id": 41382,
        "name": "EUTELSAT 65 WEST A",
        "group": "eutelsat",
        "lat": -0.011109582693139611,
        "lon": 156.07705836847362,
        "alt_km": 35791.36591190929,
        "timestamp": "2025-12-17T09:00:16.816386+00:00",
        "meta_object_name": "EUTELSAT 65 WEST A",
        "meta_object_id": "2016-014A",
        "meta_epoch": "2025-12-16T21:07:12.729216",
        "meta_mean_motion": 1.00270405,
        "meta_eccentricity": 0.00023358,
        "meta_inclination": 0.058,
        "meta_ra_of_asc_node": 324.3219,
        "meta_arg_of_pericenter": 311.2085,
        "meta_mean_anomaly": 61.8298,
        "meta_ephemeris_type": 0,
        "meta_classification_type": "U",
        "meta_norad_cat_id": 41382,
        "meta_element_set_no": 999,
        "meta_rev_at_epoch": 3570,
        "meta_bstar": 0,
        "meta_mean_motion_dot": -2.52e-06,
        "meta_mean_motion_ddot": 0,
        "tle_line1": "1 41382U 16014A   25350.88000844 -.00000252  00000+0  00000+0 0  9995",
        "tle_line2": "2 41382   0.0580 324.3219 0002335 311.2085  61.8298  1.00270405 35708"
      },
      "geometry": {
        "type": "Point",
        "coordinates": [
          156.07705836847362,
          -0.011109582693139611
        ]
      }
    },
    {
      "type": "Feature",
      "properties": {
        "norad_id": 41589,
        "name": "EUTELSAT 117 WEST B",
        "group": "eutelsat",
        "lat": 0.012163983187438733,
        "lon": 104.31433659956384,
        "alt_km": 35786.61771817724,
        "timestamp": "2025-12-17T09:00:16.816398+00:00",
        "meta_object_name": "EUTELSAT 117 WEST B",
        "meta_object_id": "2016-038B",
        "meta_epoch": "2025-12-16T07:41:38.671008",
        "meta_mean_motion": 1.00271538,
        "meta_eccentricity": 1.358e-05,
        "meta_inclination": 0.0424,
        "meta_ra_of_asc_node": 167.2106,
        "meta_arg_of_pericenter": 90.3228,
        "meta_mean_anomaly": 186.0956,
        "meta_ephemeris_type": 0,
        "meta_classification_type": "U",
        "meta_norad_cat_id": 41589,
        "meta_element_set_no": 999,
        "meta_rev_at_epoch": 3482,
        "meta_bstar": 0,
        "meta_mean_motion_dot": 1.2e-07,
        "meta_mean_motion_ddot": 0,
        "tle_line1": "1 41589U 16038B   25350.32058647  .00000012  00000+0  00000+0 0  9996",
        "tle_line2": "2 41589   0.0424 167.2106 0000135  90.3228 186.0956  1.00271538 34824"
      },
      "geometry": {
        "type": "Point",
        "coordinates": [
          104.31433659956384,
          0.012163983187438733
        ]
      }
    },
    {
      "type": "Feature",
      "properties": {
        "norad_id": 42741,
        "name": "EUTELSAT 172B",
        "group": "eutelsat",
        "lat": 0.0037268258457803663,
        "lon": 33.275196104420345,
        "alt_km": 35786.40949678073,
        "timestamp": "2025-12-17T09:00:16.816410+00:00",
        "meta_object_name": "EUTELSAT 172B",
        "meta_object_id": "2017-029B",
        "meta_epoch": "2025-12-16T15:53:15.299232",
        "meta_mean_motion": 1.00265454,
        "meta_eccentricity": 6.367e-05,
        "meta_inclination": 0.0438,
        "meta_ra_of_asc_node": 143.4073,
        "meta_arg_of_pericenter": 308.2434,
        "meta_mean_anomaly": 44.1994,
        "meta_ephemeris_type": 0,
        "meta_classification_type": "U",
        "meta_norad_cat_id": 42741,
        "meta_element_set_no": 999,
        "meta_rev_at_epoch": 3190,
        "meta_bstar": 0,
        "meta_mean_motion_dot": 1.7e-07,
        "meta_mean_motion_ddot": 0,
        "tle_line1": "1 42741U 17029B   25350.66198263  .00000017  00000+0  00000+0 0  9999",
        "tle_line2": "2 42741   0.0438 143.4073 0000636 308.2434  44.1994  1.00265454 31907"
      },
      "geometry": {
        "type": "Point",
        "coordinates": [
          33.275196104420345,
          0.0037268258457803663
        ]
      }
    }
  ]
}